{"fetched_at":"2026-07-08T17:59:26.812Z","source":"https://celestrak.org/NORAD/elements/gp.php?GROUP=planet&FORMAT=JSON","constellation":"skysat","records":[{"OBJECT_NAME":"SKYSAT-A","OBJECT_ID":"2013-066C","EPOCH":"2026-07-08T10:05:20.329152","CLASSIFICATION_TYPE":"U","MEAN_MOTION":15.13090973,"ECCENTRICITY":0.0019973,"INCLINATION":97.3804,"RA_OF_ASC_NODE":238.1409,"ARG_OF_PERICENTER":238.1447,"MEAN_ANOMALY":121.784,"EPHEMERIS_TYPE":0,"NORAD_CAT_ID":39418,"ELEMENT_SET_NO":999,"REV_AT_EPOCH":69169,"BSTAR":0.00012281,"MEAN_MOTION_DOT":0.00002119,"MEAN_MOTION_DDOT":0},{"OBJECT_NAME":"SKYSAT-B","OBJECT_ID":"2014-037D","EPOCH":"2026-07-07T20:03:38.930400","CLASSIFICATION_TYPE":"U","MEAN_MOTION":14.88079671,"ECCENTRICITY":0.0004971,"INCLINATION":98.3849,"RA_OF_ASC_NODE":148.9797,"ARG_OF_PERICENTER":197.4571,"MEAN_ANOMALY":162.6474,"EPHEMERIS_TYPE":0,"NORAD_CAT_ID":40072,"ELEMENT_SET_NO":999,"REV_AT_EPOCH":64903,"BSTAR":0.00011411,"MEAN_MOTION_DOT":0.00000988,"MEAN_MOTION_DDOT":0},{"OBJECT_NAME":"SKYSAT-C1","OBJECT_ID":"2016-040C","EPOCH":"2026-07-08T12:18:18.562176","CLASSIFICATION_TYPE":"U","MEAN_MOTION":15.36670064,"ECCENTRICITY":0.000099,"INCLINATION":96.9561,"RA_OF_ASC_NODE":220.0798,"ARG_OF_PERICENTER":9.937,"MEAN_ANOMALY":350.1894,"EPHEMERIS_TYPE":0,"NORAD_CAT_ID":41601,"ELEMENT_SET_NO":999,"REV_AT_EPOCH":56114,"BSTAR":0.00017919,"MEAN_MOTION_DOT":0.00006342,"MEAN_MOTION_DDOT":0},{"OBJECT_NAME":"SKYSAT-C4","OBJECT_ID":"2016-058B","EPOCH":"2026-07-08T07:52:55.728192","CLASSIFICATION_TYPE":"U","MEAN_MOTION":15.49274182,"ECCENTRICITY":0.0003223,"INCLINATION":96.9171,"RA_OF_ASC_NODE":210.2232,"ARG_OF_PERICENTER":128.4793,"MEAN_ANOMALY":231.6749,"EPHEMERIS_TYPE":0,"NORAD_CAT_ID":41771,"ELEMENT_SET_NO":999,"REV_AT_EPOCH":54874,"BSTAR":0.00021005,"MEAN_MOTION_DOT":0.00011392,"MEAN_MOTION_DDOT":0},{"OBJECT_NAME":"SKYSAT-C5","OBJECT_ID":"2016-058C","EPOCH":"2026-07-06T22:14:09.710592","CLASSIFICATION_TYPE":"U","MEAN_MOTION":15.34766054,"ECCENTRICITY":0.0002457,"INCLINATION":97.0459,"RA_OF_ASC_NODE":227.6879,"ARG_OF_PERICENTER":176.3166,"MEAN_ANOMALY":183.8097,"EPHEMERIS_TYPE":0,"NORAD_CAT_ID":41772,"ELEMENT_SET_NO":999,"REV_AT_EPOCH":54677,"BSTAR":0.00018242404,"MEAN_MOTION_DOT":0.00006073,"MEAN_MOTION_DDOT":0},{"OBJECT_NAME":"SKYSAT-C2","OBJECT_ID":"2016-058D","EPOCH":"2026-07-06T14:15:23.124960","CLASSIFICATION_TYPE":"U","MEAN_MOTION":15.4253765,"ECCENTRICITY":0.00025596,"INCLINATION":97.0163,"RA_OF_ASC_NODE":208.9626,"ARG_OF_PERICENTER":24.307,"MEAN_ANOMALY":335.8299,"EPHEMERIS_TYPE":0,"NORAD_CAT_ID":41773,"ELEMENT_SET_NO":999,"REV_AT_EPOCH":54804,"BSTAR":0.00024349585,"MEAN_MOTION_DOT":0.00010488,"MEAN_MOTION_DDOT":0},{"OBJECT_NAME":"SKYSAT-C3","OBJECT_ID":"2016-058E","EPOCH":"2026-07-08T11:18:34.817184","CLASSIFICATION_TYPE":"U","MEAN_MOTION":15.5348368,"ECCENTRICITY":0.0002076,"INCLINATION":96.9002,"RA_OF_ASC_NODE":219.5098,"ARG_OF_PERICENTER":133.7065,"MEAN_ANOMALY":226.4361,"EPHEMERIS_TYPE":0,"NORAD_CAT_ID":41774,"ELEMENT_SET_NO":999,"REV_AT_EPOCH":54941,"BSTAR":0.00026903,"MEAN_MOTION_DOT":0.00016991,"MEAN_MOTION_DDOT":0},{"OBJECT_NAME":"SKYSAT-C11","OBJECT_ID":"2017-068A","EPOCH":"2026-07-08T08:59:33.703296","CLASSIFICATION_TYPE":"U","MEAN_MOTION":15.59044362,"ECCENTRICITY":0.0000737,"INCLINATION":97.4371,"RA_OF_ASC_NODE":339.1482,"ARG_OF_PERICENTER":162.3294,"MEAN_ANOMALY":197.7988,"EPHEMERIS_TYPE":0,"NORAD_CAT_ID":42987,"ELEMENT_SET_NO":999,"REV_AT_EPOCH":48654,"BSTAR":0.00027282,"MEAN_MOTION_DOT":0.00021166,"MEAN_MOTION_DDOT":0},{"OBJECT_NAME":"SKYSAT-C10","OBJECT_ID":"2017-068B","EPOCH":"2026-07-08T08:25:11.395776","CLASSIFICATION_TYPE":"U","MEAN_MOTION":15.35021379,"ECCENTRICITY":0.0001316,"INCLINATION":97.4526,"RA_OF_ASC_NODE":326.4123,"ARG_OF_PERICENTER":108.5919,"MEAN_ANOMALY":251.5467,"EPHEMERIS_TYPE":0,"NORAD_CAT_ID":42988,"ELEMENT_SET_NO":999,"REV_AT_EPOCH":48560,"BSTAR":0.00019569,"MEAN_MOTION_DOT":0.00006567,"MEAN_MOTION_DDOT":0},{"OBJECT_NAME":"SKYSAT-C9","OBJECT_ID":"2017-068C","EPOCH":"2026-07-08T07:57:35.918208","CLASSIFICATION_TYPE":"U","MEAN_MOTION":15.42095834,"ECCENTRICITY":0.0009141,"INCLINATION":97.4444,"RA_OF_ASC_NODE":327.532,"ARG_OF_PERICENTER":66.6681,"MEAN_ANOMALY":293.5527,"EPHEMERIS_TYPE":0,"NORAD_CAT_ID":42989,"ELEMENT_SET_NO":999,"REV_AT_EPOCH":48601,"BSTAR":0.00020009,"MEAN_MOTION_DOT":0.00008479,"MEAN_MOTION_DDOT":0},{"OBJECT_NAME":"SKYSAT-C8","OBJECT_ID":"2017-068D","EPOCH":"2026-07-08T08:30:52.102080","CLASSIFICATION_TYPE":"U","MEAN_MOTION":15.37398624,"ECCENTRICITY":0.0001202,"INCLINATION":97.4545,"RA_OF_ASC_NODE":326.2978,"ARG_OF_PERICENTER":97.7976,"MEAN_ANOMALY":262.3405,"EPHEMERIS_TYPE":0,"NORAD_CAT_ID":42990,"ELEMENT_SET_NO":999,"REV_AT_EPOCH":48556,"BSTAR":0.00017395,"MEAN_MOTION_DOT":0.00006293,"MEAN_MOTION_DDOT":0},{"OBJECT_NAME":"SKYSAT-C7","OBJECT_ID":"2017-068E","EPOCH":"2026-07-07T23:00:14.948640","CLASSIFICATION_TYPE":"U","MEAN_MOTION":15.37344161,"ECCENTRICITY":0.000637,"INCLINATION":97.4554,"RA_OF_ASC_NODE":326.8865,"ARG_OF_PERICENTER":44.7553,"MEAN_ANOMALY":315.4204,"EPHEMERIS_TYPE":0,"NORAD_CAT_ID":42991,"ELEMENT_SET_NO":999,"REV_AT_EPOCH":48556,"BSTAR":0.00016604,"MEAN_MOTION_DOT":0.00005995,"MEAN_MOTION_DDOT":0},{"OBJECT_NAME":"SKYSAT-C6","OBJECT_ID":"2017-068F","EPOCH":"2026-07-08T08:15:50.457600","CLASSIFICATION_TYPE":"U","MEAN_MOTION":15.34088074,"ECCENTRICITY":0.0005106,"INCLINATION":97.4595,"RA_OF_ASC_NODE":327.1616,"ARG_OF_PERICENTER":106.6879,"MEAN_ANOMALY":253.4924,"EPHEMERIS_TYPE":0,"NORAD_CAT_ID":42992,"ELEMENT_SET_NO":999,"REV_AT_EPOCH":48556,"BSTAR":0.00017502,"MEAN_MOTION_DOT":0.00005693,"MEAN_MOTION_DDOT":0},{"OBJECT_NAME":"SKYSAT-C12","OBJECT_ID":"2018-099AR","EPOCH":"2026-07-08T00:31:36.810912","CLASSIFICATION_TYPE":"U","MEAN_MOTION":15.49607498,"ECCENTRICITY":0.0005823,"INCLINATION":96.9261,"RA_OF_ASC_NODE":211.4283,"ARG_OF_PERICENTER":86.3364,"MEAN_ANOMALY":273.8554,"EPHEMERIS_TYPE":0,"NORAD_CAT_ID":43797,"ELEMENT_SET_NO":999,"REV_AT_EPOCH":42508,"BSTAR":0.00021318,"MEAN_MOTION_DOT":0.00011705,"MEAN_MOTION_DDOT":0}]}
