SKYSAT-A                
1 39418U 13066C   26189.42037418  .00002119  00000+0  12281-3 0  9995
2 39418  97.3804 238.1409 0019973 238.1447 121.7840 15.13090973691695
SKYSAT-B                
1 40072U 14037D   26188.83586725  .00000988  00000+0  11411-3 0  9992
2 40072  98.3849 148.9797 0004971 197.4571 162.6474 14.88079671649039
SKYSAT-C1               
1 41601U 16040C   26189.51271484  .00006342  00000+0  17919-3 0  9995
2 41601  96.9561 220.0798 0000990   9.9370 350.1894 15.36670064561149
SKYSAT-C4               
1 41771U 16058B   26189.32842278  .00011392  00000+0  21005-3 0  9998
2 41771  96.9171 210.2232 0003223 128.4793 231.6749 15.49274182548744
SKYSAT-C5               
1 41772U 16058C   26187.92650128  .00006073  00000+0  18242-3 0  9993
2 41772  97.0459 227.6879 0002457 176.3166 183.8097 15.34766054546772
SKYSAT-C2               
1 41773U 16058D   26187.59401765  .00010488  00000+0  24350-3 0  9990
2 41773  97.0163 208.9626 0002559  24.3070 335.8299 15.42537650548048
SKYSAT-C3               
1 41774U 16058E   26189.47123631  .00016991  00000+0  26903-3 0  9994
2 41774  96.9002 219.5098 0002076 133.7065 226.4361 15.53483680549415
SKYSAT-C11              
1 42987U 17068A   26189.37469564  .00021166  00000+0  27282-3 0  9991
2 42987  97.4371 339.1482 0000737 162.3294 197.7988 15.59044362486542
SKYSAT-C10              
1 42988U 17068B   26189.35082634  .00006567  00000+0  19569-3 0  9996
2 42988  97.4526 326.4123 0001316 108.5919 251.5467 15.35021379485600
SKYSAT-C9               
1 42989U 17068C   26189.33166572  .00008479  00000+0  20009-3 0  9994
2 42989  97.4444 327.5320 0009141  66.6681 293.5527 15.42095834486019
SKYSAT-C8               
1 42990U 17068D   26189.35476970  .00006293  00000+0  17395-3 0  9990
2 42990  97.4545 326.2978 0001202  97.7976 262.3405 15.37398624485565
SKYSAT-C7               
1 42991U 17068E   26188.95850635  .00005995  00000+0  16604-3 0  9990
2 42991  97.4554 326.8865 0006370  44.7553 315.4204 15.37344161485565
SKYSAT-C6               
1 42992U 17068F   26189.34433400  .00005693  00000+0  17502-3 0  9995
2 42992  97.4595 327.1616 0005106 106.6879 253.4924 15.34088074485569
SKYSAT-C12              
1 43797U 18099AR  26189.02195383  .00011705  00000+0  21318-3 0  9995
2 43797  96.9261 211.4283 0005823  86.3364 273.8554 15.49607498425080
